{"fetched_at":"2026-03-29T16:36:15Z","count":15609,"tles":[{"name":"STARLINK-35723","line1":"1 66211U 25244F   26087.56497876  .00015086  00000+0  52030-3 0  9990","line2":"2 66211  53.1583 141.9402 0001179  78.7191 281.3942 15.30209364 24542","category":"Starlink"}]}